*******************************************************************************
JPL/HORIZONS                  111 Ate (A870 PA)            2023-Sep-04 11:04:27
Rec #:     111 (+COV) Soln.date: 2023-Aug-21_14:44:14   # obs: 6813 (1870-2023)
 
IAU76/J2000 helio. ecliptic osc. elements (au, days, deg., period=Julian yrs):
 
  EPOCH=  2457121.5 ! 2015-Apr-09.00 (TDB)         Residual RMS= .31042
   EC= .1036171035068641   QR= 2.324417651408956   TP= 2456793.0431717085
   OM= 305.7567436948622   W=  166.4322972229032   IN= 4.932206372776993
   A= 2.593107990461033    MA= 77.52672953015792   ADIST= 2.86179832951311
   PER= 4.17579            N= .23603324            ANGMOM= .027551658
   DAN= 2.8526             DDN= 2.33052            L= 112.2374331
   B= 1.1557168            MOID= 1.34195006        TP= 2014-May-15.5431717085
 
Asteroid physical parameters (km, seconds, rotational period in hours):
   GM= n.a.                RAD= 63.172             ROTPER= 22.072
   H= 8.26                 G= .150                 B-V= .690
                           ALBEDO= .062            STYP= Ch

ASTEROID comments: 
1: soln ref.= JPL#129, OCC=0
2: source=ORB
*******************************************************************************


*******************************************************************************
Ephemeris / API_USER Mon Sep  4 11:04:27 2023 Pasadena, USA      / Horizons
*******************************************************************************
Target body name: 111 Ate (A870 PA)               {source: JPL#129}
Center body name: Solar System Barycenter (0)     {source: DE441}
Center-site name: BODY CENTER
*******************************************************************************
Start time      : A.D. 2023-Aug-12 00:00:00.0000 TDB
Stop  time      : A.D. 2023-Aug-13 00:00:00.0000 TDB
Step-size       : 2880 minutes
*******************************************************************************
Center geodetic : 0.0, 0.0, 0.0                   {E-lon(deg),Lat(deg),Alt(km)}
Center cylindric: 0.0, 0.0, 0.0                   {E-lon(deg),Dxy(km),Dz(km)}
Center radii    : (undefined)
Small perturbers: Yes                             {source: SB441-N16}
Output units    : KM-S
Calendar mode   : Mixed Julian/Gregorian
Output type     : GEOMETRIC cartesian states
Output format   : 2 (position and velocity)
Reference frame : Ecliptic of J2000.0
*******************************************************************************
Initial IAU76/J2000 heliocentric ecliptic osculating elements (au, days, deg.):
  EPOCH=  2457121.5 ! 2015-Apr-09.00 (TDB)         Residual RMS= .31042        
   EC= .1036171035068641   QR= 2.324417651408956   TP= 2456793.0431717085      
   OM= 305.7567436948622   W=  166.4322972229032   IN= 4.932206372776993       
  Equivalent ICRF heliocentric cartesian coordinates (au, au/d):
   X=-2.375641452288632E+00  Y=-7.739089857899537E-01  Z=-5.683105559831324E-01
  VX= 2.927017818723566E-03 VY=-9.415857268332464E-03 VZ=-4.430535414894674E-03
Asteroid physical parameters (km, seconds, rotational period in hours):        
   GM= n.a.                RAD= 63.172             ROTPER= 22.072              
   H= 8.26                 G= .150                 B-V= .690                   
                           ALBEDO= .062            STYP= Ch                    
*******************************************************************************
JDTDB
   X     Y     Z
   VX    VY    VZ
*******************************************************************************
$$SOE
2460168.500000000 = A.D. 2023-Aug-12 00:00:00.0000 TDB 
 X =-3.581598548261395E+08 Y =-1.308687319557944E+08 Z =-3.154995620655938E+07
 VX= 4.683503666673976E+00 VY=-1.822953615970204E+01 VZ=-5.888349995561066E-01
$$EOE
*******************************************************************************
 
TIME

  Barycentric Dynamical Time ("TDB" or T_eph) output was requested. This
continuous coordinate time is equivalent to the relativistic proper time
of a clock at rest in a reference frame co-moving with the solar system
barycenter but outside the system's gravity well. It is the independent
variable in the solar system relativistic equations of motion.

  TDB runs at a uniform rate of one SI second per second and is independent
of irregularities in Earth's rotation.
 
CALENDAR SYSTEM

  Mixed calendar mode was active such that calendar dates after AD 1582-Oct-15
(if any) are in the modern Gregorian system. Dates prior to 1582-Oct-5 (if any)
are in the Julian calendar system, which is automatically extended for dates
prior to its adoption on 45-Jan-1 BC.  The Julian calendar is useful for
matching historical dates. The Gregorian calendar more accurately corresponds
to the Earth's orbital motion and seasons. A "Gregorian-only" calendar mode is
available if such physical events are the primary interest.

REFERENCE FRAME AND COORDINATES

  Ecliptic at the standard reference epoch

    Reference epoch: J2000.0
    X-Y plane: adopted Earth orbital plane at the reference epoch
               Note: IAU76 obliquity of 84381.448 arcseconds wrt ICRF X-Y plane
    X-axis   : ICRF
    Z-axis   : perpendicular to the X-Y plane in the directional (+ or -) sense
               of Earth's north pole at the reference epoch.

  Symbol meaning:

    JDTDB    Julian Day Number, Barycentric Dynamical Time
      X      X-component of position vector (km)
      Y      Y-component of position vector (km)
      Z      Z-component of position vector (km)
      VX     X-component of velocity vector (km/sec)                           
      VY     Y-component of velocity vector (km/sec)                           
      VZ     Z-component of velocity vector (km/sec)                           

ABERRATIONS AND CORRECTIONS

 Geometric state vectors have NO corrections or aberrations applied.

Computations by ...

    Solar System Dynamics Group, Horizons On-Line Ephemeris System
    4800 Oak Grove Drive, Jet Propulsion Laboratory
    Pasadena, CA  91109   USA

    General site: https://ssd.jpl.nasa.gov/
    Mailing list: https://ssd.jpl.nasa.gov/email_list.html
    System news : https://ssd.jpl.nasa.gov/horizons/news.html
    User Guide  : https://ssd.jpl.nasa.gov/horizons/manual.html
    Connect     : browser        https://ssd.jpl.nasa.gov/horizons/app.html#/x
                  API            https://ssd-api.jpl.nasa.gov/doc/horizons.html
                  command-line   telnet ssd.jpl.nasa.gov 6775
                  e-mail/batch   https://ssd.jpl.nasa.gov/ftp/ssd/hrzn_batch.txt
                  scripts        https://ssd.jpl.nasa.gov/ftp/ssd/SCRIPTS
    Author      : Jon.D.Giorgini@jpl.nasa.gov
*******************************************************************************
